{
"type": "FeatureCollection",
"name": "risk_zones",
"crs": { "type": "name", "properties": { "name": "urn:ogc:def:crs:OGC:1.3:CRS84" } },
"features": [
{ "type": "Feature", "properties": { "cluster": 0, "latitude": 18.519884696202531, "longitude": 73.856966221518974, "report_count": 158, "average_urgency": 71.335443037974684, "total_people_affected": 2127, "severe_reports": 43, "high_reports": 60, "medium_reports": 47, "low_reports": 8, "priority_score": 78.388637517681616, "priority_level": "CRITICAL", "radius_meters": 1000 }, "geometry": { "type": "Polygon", "coordinates": [ [ [ 73.86594937436017, 18.519884696202531 ], [ 73.865906118023887, 18.519049789399119 ], [ 73.865776765597232, 18.518222919188055 ], [ 73.865562562814759, 18.517412048955428 ], [ 73.865265572566372, 18.516624988107171 ], [ 73.864888655030512, 18.515869316849429 ], [ 73.864435440129085, 18.515152313172326 ], [ 73.863910292569386, 18.51448088274125 ], [ 73.863318269809426, 18.513861492371156 ], [ 73.862665073352034, 18.513300107725637 ], [ 73.861956993836216, 18.512802135841429 ], [ 73.861200850454722, 18.512372373032758 ], [ 73.860403925281702, 18.512014958678268 ], [ 73.859573893142198, 18.511733335336235 ], [ 73.858718747699484, 18.511530215573075 ], [ 73.857846724471614, 18.511407555825265 ], [ 73.856966221518974, 18.511366537546959 ], [ 73.856085718566334, 18.511407555825265 ], [ 73.855213695338463, 18.511530215573075 ], [ 73.85435854989575, 18.511733335336235 ], [ 73.853528517756246, 18.512014958678268 ], [ 73.852731592583226, 18.512372373032758 ], [ 73.851975449201731, 18.512802135841429 ], [ 73.8512673696859, 18.513300107725637 ], [ 73.850614173228522, 18.513861492371156 ], [ 73.850022150468561, 18.51448088274125 ], [ 73.849497002908848, 18.515152313172326 ], [ 73.849043788007421, 18.515869316849429 ], [ 73.848666870471575, 18.516624988107171 ], [ 73.848369880223188, 18.517412048955428 ], [ 73.848155677440715, 18.518222919188055 ], [ 73.848026325014061, 18.519049789399119 ], [ 73.847983068677777, 18.519884696202531 ], [ 73.848026325014061, 18.520719598930523 ], [ 73.848155677440715, 18.52154645707196 ], [ 73.848369880223188, 18.522357307704578 ], [ 73.848666870471575, 18.523144342175652 ], [ 73.849043788007421, 18.523899981292718 ], [ 73.849497002908848, 18.524616948300775 ], [ 73.850022150468561, 18.525288338943625 ], [ 73.850614173228522, 18.525907687935344 ], [ 73.8512673696859, 18.526469031202481 ], [ 73.851975449201731, 18.526966963298463 ], [ 73.852731592583226, 18.527396689438095 ], [ 73.853528517756246, 18.527754071651898 ], [ 73.85435854989575, 18.528035668616759 ], [ 73.855213695338463, 18.528238768779904 ], [ 73.856085718566334, 18.52836141645809 ], [ 73.856966221518974, 18.528402430660979 ], [ 73.857846724471614, 18.52836141645809 ], [ 73.858718747699484, 18.528238768779904 ], [ 73.859573893142198, 18.528035668616759 ], [ 73.860403925281702, 18.527754071651898 ], [ 73.861200850454722, 18.527396689438095 ], [ 73.861956993836216, 18.526966963298463 ], [ 73.862665073352034, 18.526469031202481 ], [ 73.863318269809426, 18.525907687935344 ], [ 73.863910292569386, 18.525288338943625 ], [ 73.864435440129085, 18.524616948300775 ], [ 73.864888655030512, 18.523899981292718 ], [ 73.865265572566372, 18.523144342175652 ], [ 73.865562562814759, 18.522357307704578 ], [ 73.865776765597232, 18.52154645707196 ], [ 73.865906118023887, 18.520719598930523 ], [ 73.86594937436017, 18.519884696202531 ] ] ] } },
{ "type": "Feature", "properties": { "cluster": 4, "latitude": 18.4706844, "longitude": 73.81956888000001, "report_count": 25, "average_urgency": 77.04, "total_people_affected": 427, "severe_reports": 8, "high_reports": 12, "medium_reports": 5, "low_reports": 0, "priority_score": 50.756880733944953, "priority_level": "HIGH", "radius_meters": 750 }, "geometry": { "type": "Polygon", "coordinates": [ [ [ 73.826306244630899, 18.4706844 ], [ 73.82627380237868, 18.470058040392221 ], [ 73.826176788058689, 18.46943771071567 ], [ 73.826016135971841, 18.468829385181834 ], [ 73.825793393285537, 18.468238922456589 ], [ 73.825510705133652, 18.467672009231954 ], [ 73.825170793957582, 18.46713410545194 ], [ 73.824776933287794, 18.466630391720326 ], [ 73.824332916217841, 18.466165719397221 ], [ 73.823843018874797, 18.465744563865467 ], [ 73.823311959237927, 18.465370981417387 ], [ 73.822744851701813, 18.465048570177661 ], [ 73.822147157822045, 18.464780435439035 ], [ 73.821524633717431, 18.464569159745299 ], [ 73.820883274635378, 18.46441677800998 ], [ 73.820229257214478, 18.464324757910834 ], [ 73.81956888, 18.464293985749229 ], [ 73.818908502785519, 18.464324757910834 ], [ 73.818254485364605, 18.46441677800998 ], [ 73.817613126282566, 18.464569159745299 ], [ 73.816990602177952, 18.464780435439035 ], [ 73.816392908298184, 18.465048570177661 ], [ 73.81582580076207, 18.465370981417387 ], [ 73.8152947411252, 18.465744563865467 ], [ 73.81480484378217, 18.466165719397221 ], [ 73.814360826712189, 18.466630391720326 ], [ 73.8139669660424, 18.46713410545194 ], [ 73.813627054866345, 18.467672009231954 ], [ 73.813344366714446, 18.468238922456589 ], [ 73.81312162402817, 18.468829385181834 ], [ 73.812960971941308, 18.46943771071567 ], [ 73.812863957621317, 18.470058040392221 ], [ 73.812831515369098, 18.4706844 ], [ 73.812863957621317, 18.471310757320577 ], [ 73.812960971941308, 18.47193108022342 ], [ 73.81312162402817, 18.472539394757359 ], [ 73.813344366714446, 18.473129842679228 ], [ 73.813627054866345, 18.473696737865904 ], [ 73.8139669660424, 18.474234621066547 ], [ 73.814360826712189, 18.474738312468254 ], [ 73.81480484378217, 18.475202961569021 ], [ 73.8152947411252, 18.475624093878448 ], [ 73.81582580076207, 18.475997653996618 ], [ 73.816392908298184, 18.476320044656976 ], [ 73.816990602177952, 18.476588161357643 ], [ 73.817613126282566, 18.476799422248 ], [ 73.818254485364605, 18.476951792983421 ], [ 73.818908502785519, 18.477043806308867 ], [ 73.81956888, 18.47707457618327 ], [ 73.820229257214478, 18.477043806308867 ], [ 73.820883274635378, 18.476951792983421 ], [ 73.821524633717431, 18.476799422248 ], [ 73.822147157822045, 18.476588161357643 ], [ 73.822744851701813, 18.476320044656976 ], [ 73.823311959237927, 18.475997653996618 ], [ 73.823843018874797, 18.475624093878448 ], [ 73.824332916217841, 18.475202961569021 ], [ 73.824776933287794, 18.474738312468254 ], [ 73.825170793957582, 18.474234621066547 ], [ 73.825510705133652, 18.473696737865904 ], [ 73.825793393285537, 18.473129842679228 ], [ 73.826016135971841, 18.472539394757359 ], [ 73.826176788058689, 18.47193108022342 ], [ 73.82627380237868, 18.471310757320577 ], [ 73.826306244630899, 18.4706844 ] ] ] } },
{ "type": "Feature", "properties": { "cluster": 3, "latitude": 18.565781982456141, "longitude": 73.911977736842104, "report_count": 57, "average_urgency": 68.192982456140356, "total_people_affected": 693, "severe_reports": 15, "high_reports": 20, "medium_reports": 15, "low_reports": 7, "priority_score": 29.651415709695627, "priority_level": "MEDIUM", "radius_meters": 500 }, "geometry": { "type": "Polygon", "coordinates": [ [ [ 73.916469313262695, 18.565781982456141 ], [ 73.916447685094568, 18.565364641715735 ], [ 73.916383008881226, 18.56495131918852 ], [ 73.91627590748999, 18.564545995439907 ], [ 73.916127412365796, 18.564152574029919 ], [ 73.915938953597873, 18.563774843916946 ], [ 73.91571234614716, 18.563416442964421 ], [ 73.915449772367296, 18.563080822901725 ], [ 73.915153760987323, 18.562771216077067 ], [ 73.914827162758641, 18.562490604322658 ], [ 73.914473123000718, 18.562241690232366 ], [ 73.914095051309971, 18.562026871128452 ], [ 73.913696588723468, 18.561848215968606 ], [ 73.913281572653716, 18.561707445415585 ], [ 73.912853999932352, 18.561605915261911 ], [ 73.91241798831841, 18.561544603369175 ], [ 73.911977736842104, 18.561524100247944 ], [ 73.911537485365784, 18.561544603369175 ], [ 73.911101473751856, 18.561605915261911 ], [ 73.910673901030492, 18.561707445415585 ], [ 73.91025888496074, 18.561848215968606 ], [ 73.909860422374223, 18.562026871128452 ], [ 73.90948235068349, 18.562241690232366 ], [ 73.909128310925567, 18.562490604322658 ], [ 73.908801712696871, 18.562771216077067 ], [ 73.908505701316898, 18.563080822901725 ], [ 73.908243127537048, 18.563416442964421 ], [ 73.908016520086321, 18.563774843916946 ], [ 73.907828061318398, 18.564152574029919 ], [ 73.907679566194204, 18.564545995439907 ], [ 73.907572464802982, 18.56495131918852 ], [ 73.907507788589641, 18.565364641715735 ], [ 73.907486160421513, 18.565781982456141 ], [ 73.907507788589641, 18.566199322175525 ], [ 73.907572464802982, 18.566612641678944 ], [ 73.907679566194204, 18.567017960517145 ], [ 73.907828061318398, 18.567411375318851 ], [ 73.908016520086321, 18.567789097379606 ], [ 73.908243127537048, 18.568147489145421 ], [ 73.908505701316898, 18.568483099239948 ], [ 73.908801712696871, 18.568792695698072 ], [ 73.909128310925567, 18.569073297085936 ], [ 73.90948235068349, 18.569322201208067 ], [ 73.909860422374223, 18.569537011125266 ], [ 73.91025888496074, 18.569715658232898 ], [ 73.910673901030492, 18.569856422177629 ], [ 73.911101473751856, 18.5699579474209 ], [ 73.911537485365784, 18.570019256289829 ], [ 73.911977736842104, 18.570039758390049 ], [ 73.91241798831841, 18.570019256289829 ], [ 73.912853999932352, 18.5699579474209 ], [ 73.913281572653716, 18.569856422177629 ], [ 73.913696588723468, 18.569715658232898 ], [ 73.914095051309971, 18.569537011125266 ], [ 73.914473123000718, 18.569322201208067 ], [ 73.914827162758641, 18.569073297085936 ], [ 73.915153760987323, 18.568792695698072 ], [ 73.915449772367296, 18.568483099239948 ], [ 73.91571234614716, 18.568147489145421 ], [ 73.915938953597873, 18.567789097379606 ], [ 73.916127412365796, 18.567411375318851 ], [ 73.91627590748999, 18.567017960517145 ], [ 73.916383008881226, 18.566612641678944 ], [ 73.916447685094568, 18.566199322175525 ], [ 73.916469313262695, 18.565781982456141 ] ] ] } },
{ "type": "Feature", "properties": { "cluster": 1, "latitude": 18.5074141, "longitude": 73.80802579, "report_count": 100, "average_urgency": 64.42, "total_people_affected": 1141, "severe_reports": 23, "high_reports": 29, "medium_reports": 31, "low_reports": 17, "priority_score": 29.267170964430331, "priority_level": "MEDIUM", "radius_meters": 500 }, "geometry": { "type": "Polygon", "coordinates": [ [ [ 73.812517366420593, 18.5074141 ], [ 73.812495738252466, 18.50699661668158 ], [ 73.812431062039124, 18.506583152952146 ], [ 73.812323960647888, 18.506177690736891 ], [ 73.812175465523694, 18.505784134929115 ], [ 73.811987006755771, 18.505406275781304 ], [ 73.811760399305058, 18.505047752399239 ], [ 73.811497825525194, 18.504712017691016 ], [ 73.811201814145221, 18.504402305108538 ], [ 73.810875215916539, 18.504121597502149 ], [ 73.810521176158616, 18.503872598388401 ], [ 73.810143104467869, 18.503657705908012 ], [ 73.809744641881366, 18.503478989724936 ], [ 73.809329625811614, 18.503338171089332 ], [ 73.80890205309025, 18.503236606256532 ], [ 73.808466041476322, 18.503175273421895 ], [ 73.80802579, 18.503154763297559 ], [ 73.807585538523682, 18.503175273421895 ], [ 73.807149526909754, 18.503236606256532 ], [ 73.80672195418839, 18.503338171089332 ], [ 73.806306938118638, 18.503478989724936 ], [ 73.805908475532121, 18.503657705908012 ], [ 73.805530403841388, 18.503872598388401 ], [ 73.805176364083465, 18.504121597502149 ], [ 73.804849765854769, 18.504402305108538 ], [ 73.804553754474796, 18.504712017691016 ], [ 73.804291180694946, 18.505047752399239 ], [ 73.804064573244219, 18.505406275781304 ], [ 73.803876114476296, 18.505784134929115 ], [ 73.803727619352102, 18.506177690736891 ], [ 73.80362051796088, 18.506583152952146 ], [ 73.803555841747539, 18.50699661668158 ], [ 73.803534213579411, 18.5074141 ], [ 73.803555841747539, 18.507831582300149 ], [ 73.80362051796088, 18.508245043013915 ], [ 73.803727619352102, 18.508650500331992 ], [ 73.803876114476296, 18.509044049549278 ], [ 73.804064573244219, 18.509421900666556 ], [ 73.804291180694946, 18.509780414886649 ], [ 73.804553754474796, 18.510116139653555 ], [ 73.804849765854769, 18.510425841897401 ], [ 73.805176364083465, 18.510706539165163 ], [ 73.805530403841388, 18.510955528337593 ], [ 73.805908475532121, 18.511170411656018 ], [ 73.806306938118638, 18.511349119808557 ], [ 73.80672195418839, 18.511489931853667 ], [ 73.807149526909754, 18.511591491789297 ], [ 73.807585538523682, 18.511652821608266 ], [ 73.80802579, 18.511673330714338 ], [ 73.808466041476322, 18.511652821608266 ], [ 73.80890205309025, 18.511591491789297 ], [ 73.809329625811614, 18.511489931853667 ], [ 73.809744641881366, 18.511349119808557 ], [ 73.810143104467869, 18.511170411656018 ], [ 73.810521176158616, 18.510955528337593 ], [ 73.810875215916539, 18.510706539165163 ], [ 73.811201814145221, 18.510425841897401 ], [ 73.811497825525194, 18.510116139653555 ], [ 73.811760399305058, 18.509780414886649 ], [ 73.811987006755771, 18.509421900666556 ], [ 73.812175465523694, 18.509044049549278 ], [ 73.812323960647888, 18.508650500331992 ], [ 73.812431062039124, 18.508245043013915 ], [ 73.812495738252466, 18.507831582300149 ], [ 73.812517366420593, 18.5074141 ] ] ] } },
{ "type": "Feature", "properties": { "cluster": 2, "latitude": 18.480072176470589, "longitude": 73.889513147058835, "report_count": 34, "average_urgency": 67.529411764705884, "total_people_affected": 383, "severe_reports": 7, "high_reports": 15, "medium_reports": 9, "low_reports": 3, "priority_score": 9.3432735407539464, "priority_level": "LOW", "radius_meters": 350 }, "geometry": { "type": "Polygon", "coordinates": [ [ [ 73.892657250553256, 18.480072176470589 ], [ 73.892642110835567, 18.479779891606185 ], [ 73.892596837486224, 18.479490421113663 ], [ 73.892521866512354, 18.479206552773373 ], [ 73.892417919925421, 18.478931020427119 ], [ 73.89228599878787, 18.478666477648463 ], [ 73.892127373572379, 18.478415472185567 ], [ 73.891943571926475, 18.478180421422813 ], [ 73.89173636396049, 18.477963589097598 ], [ 73.891507745200414, 18.477767063496596 ], [ 73.891259917369865, 18.477592737341617 ], [ 73.890995267186355, 18.477442289558883 ], [ 73.890716343375786, 18.477317169107334 ], [ 73.890425832126965, 18.477218581021912 ], [ 73.890126531222009, 18.477147474806202 ], [ 73.889821323092264, 18.477104535286433 ], [ 73.889513147058821, 18.477090176014908 ], [ 73.889204971025407, 18.477104535286433 ], [ 73.888899762895662, 18.477147474806202 ], [ 73.888600461990706, 18.477218581021912 ], [ 73.888309950741885, 18.477317169107334 ], [ 73.888031026931316, 18.477442289558883 ], [ 73.887766376747805, 18.477592737341617 ], [ 73.887518548917257, 18.477767063496596 ], [ 73.887289930157181, 18.477963589097598 ], [ 73.887082722191195, 18.478180421422813 ], [ 73.886898920545292, 18.478415472185567 ], [ 73.886740295329801, 18.478666477648463 ], [ 73.886608374192249, 18.478931020427119 ], [ 73.886504427605317, 18.479206552773373 ], [ 73.886429456631447, 18.479490421113663 ], [ 73.886384183282104, 18.479779891606185 ], [ 73.886369043564414, 18.480072176470589 ], [ 73.886384183282104, 18.480364460836679 ], [ 73.886429456631447, 18.480653929853389 ], [ 73.886504427605317, 18.480937795797104 ], [ 73.886608374192249, 18.481213324918112 ], [ 73.886740295329801, 18.481477863766788 ], [ 73.886898920545292, 18.481728864746 ], [ 73.887082722191195, 18.481963910643671 ], [ 73.887289930157181, 18.482180737909378 ], [ 73.887518548917257, 18.482377258450871 ], [ 73.887766376747805, 18.482551579740772 ], [ 73.888031026931316, 18.482702023039824 ], [ 73.888309950741885, 18.48282713956139 ], [ 73.888600461990706, 18.482925724421566 ], [ 73.888899762895662, 18.482996828240701 ], [ 73.889204971025407, 18.483039766284659 ], [ 73.889513147058821, 18.483054125057869 ], [ 73.889821323092264, 18.483039766284659 ], [ 73.890126531222009, 18.482996828240701 ], [ 73.890425832126965, 18.482925724421566 ], [ 73.890716343375786, 18.48282713956139 ], [ 73.890995267186355, 18.482702023039824 ], [ 73.891259917369865, 18.482551579740772 ], [ 73.891507745200414, 18.482377258450871 ], [ 73.89173636396049, 18.482180737909378 ], [ 73.891943571926475, 18.481963910643671 ], [ 73.892127373572379, 18.481728864746 ], [ 73.89228599878787, 18.481477863766788 ], [ 73.892417919925421, 18.481213324918112 ], [ 73.892521866512354, 18.480937795797104 ], [ 73.892596837486224, 18.480653929853389 ], [ 73.892642110835567, 18.480364460836679 ], [ 73.892657250553256, 18.480072176470589 ] ] ] } },
{ "type": "Feature", "properties": { "cluster": 5, "latitude": 18.591620102564104, "longitude": 73.819044794871786, "report_count": 39, "average_urgency": 64.15384615384616, "total_people_affected": 453, "severe_reports": 8, "high_reports": 14, "medium_reports": 10, "low_reports": 7, "priority_score": 3.3093915982617093, "priority_level": "LOW", "radius_meters": 350 }, "geometry": { "type": "Polygon", "coordinates": [ [ [ 73.822188898366193, 18.5916201025641 ], [ 73.822173758648503, 18.591328008431173 ], [ 73.82212848529916, 18.591038726830757 ], [ 73.822053514325304, 18.590755043724151 ], [ 73.821949567738372, 18.590479691169445 ], [ 73.82181764660082, 18.590215321008955 ], [ 73.821659021385315, 18.589964479328728 ], [ 73.821475219739412, 18.589729581936165 ], [ 73.821268011773441, 18.589512891091971 ], [ 73.821039393013351, 18.58931649372067 ], [ 73.820791565182816, 18.58914228130952 ], [ 73.820526914999292, 18.588991931689698 ], [ 73.820247991188737, 18.588866892875114 ], [ 73.819957479939916, 18.588768369114781 ], [ 73.81965817903496, 18.588697309293053 ], [ 73.8193529709052, 18.588654397789533 ], [ 73.819044794871786, 18.588640047886823 ], [ 73.818736618838358, 18.588654397789533 ], [ 73.818431410708612, 18.588697309293053 ], [ 73.818132109803642, 18.588768369114781 ], [ 73.817841598554821, 18.588866892875114 ], [ 73.817562674744266, 18.588991931689698 ], [ 73.817298024560742, 18.58914228130952 ], [ 73.817050196730193, 18.58931649372067 ], [ 73.816821577970117, 18.589512891091971 ], [ 73.816614370004132, 18.589729581936165 ], [ 73.816430568358228, 18.589964479328728 ], [ 73.816271943142738, 18.590215321008955 ], [ 73.8161400220052, 18.590479691169445 ], [ 73.816036075418253, 18.590755043724151 ], [ 73.815961104444384, 18.591038726830757 ], [ 73.815915831095055, 18.591328008431173 ], [ 73.815900691377365, 18.5916201025641 ], [ 73.815915831095055, 18.591912196196134 ], [ 73.815961104444384, 18.592201476313122 ], [ 73.816036075418253, 18.592485157010771 ], [ 73.8161400220052, 18.592760506323561 ], [ 73.816271943142738, 18.593024872533764 ], [ 73.816430568358228, 18.593275709707143 ], [ 73.816614370004132, 18.593510602209491 ], [ 73.816821577970117, 18.593727287968029 ], [ 73.817050196730193, 18.593923680253678 ], [ 73.817298024560742, 18.594097887774609 ], [ 73.817562674744266, 18.594248232887583 ], [ 73.817841598554821, 18.59437326775188 ], [ 73.818132109803642, 18.594471788270301 ], [ 73.818431410708612, 18.594542845683065 ], [ 73.818736618838358, 18.594585755703154 ], [ 73.819044794871786, 18.594600105104973 ], [ 73.8193529709052, 18.594585755703154 ], [ 73.81965817903496, 18.594542845683065 ], [ 73.819957479939916, 18.594471788270301 ], [ 73.820247991188737, 18.59437326775188 ], [ 73.820526914999292, 18.594248232887583 ], [ 73.820791565182816, 18.594097887774609 ], [ 73.821039393013351, 18.593923680253678 ], [ 73.821268011773441, 18.593727287968029 ], [ 73.821475219739412, 18.593510602209491 ], [ 73.821659021385315, 18.593275709707143 ], [ 73.82181764660082, 18.593024872533764 ], [ 73.821949567738372, 18.592760506323561 ], [ 73.822053514325304, 18.592485157010771 ], [ 73.82212848529916, 18.592201476313122 ], [ 73.822173758648503, 18.591912196196134 ], [ 73.822188898366193, 18.5916201025641 ] ] ] } }
]
}
